[{"OBJECT_NAME":"YAM-7","OBJECT_ID":"2024-149AN","EPOCH":"2026-03-09T17:13:55.117920","MEAN_MOTION":15.30304554,"ECCENTRICITY":0.00019733,"INCLINATION":97.3828,"RA_OF_ASC_NODE":149.4631,"ARG_OF_PERICENTER":296.5121,"MEAN_ANOMALY":63.5918,"EPHEMERIS_TYPE":0,"CLASSIFICATION_TYPE":"U","NORAD_CAT_ID":60504,"ELEMENT_SET_NO":999,"REV_AT_EPOCH":8683,"BSTAR":0.00030984439,"MEAN_MOTION_DOT":9.009e-5,"MEAN_MOTION_DDOT":0},{"OBJECT_NAME":"STARLINK-34329","OBJECT_ID":"2025-120A","EPOCH":"2026-03-09T12:38:11.594976","MEAN_MOTION":15.30190316,"ECCENTRICITY":0.00012062,"INCLINATION":53.1588,"RA_OF_ASC_NODE":117.2785,"ARG_OF_PERICENTER":91.5145,"MEAN_ANOMALY":268.5994,"EPHEMERIS_TYPE":0,"CLASSIFICATION_TYPE":"U","NORAD_CAT_ID":64256,"ELEMENT_SET_NO":999,"REV_AT_EPOCH":4390,"BSTAR":0.00078591055,"MEAN_MOTION_DOT":0.00022982,"MEAN_MOTION_DDOT":0}]
